start=new Date('2022-03-14T00:00:00.000Z').valueOf();
sats=[{"ECCENTRICITY":"0.00015630","EPHEMERIS_TYPE":"0","CLASSIFICATION_TYPE":"U","MEAN_MOTION_DOT":"0.00004088","OBJECT_NAME":"STARLINK-1503","TIME_SYSTEM":"UTC","MEAN_MOTION":"15.06393615","FILE":"3358388","EPOCH":"2022-03-13T21:18:53.395200","ELEMENT_SET_NO":"999","LAUNCH_DATE":"2020-06-13","TLE_LINE2":"2 45745  53.0525 296.4648 0001563  60.6444 299.4701 15.06393615 96618","SITE":"AFETR","ARG_OF_PERICENTER":"60.6444","PERIAPSIS":"546.151","RA_OF_ASC_NODE":"296.4648","RCS_SIZE":"LARGE","OBJECT_TYPE":"PAYLOAD","OBJECT_ID":"2020-038R","COUNTRY_CODE":"US","INCLINATION":"53.0525","DECAY_DATE":null,"MEAN_MOTION_DDOT":"0.0000000000000","NORAD_CAT_ID":"45745","MEAN_ANOMALY":"299.4701","PERIOD":"95.593","REF_FRAME":"TEME","BSTAR":"0.00029326000000","APOAPSIS":"548.316","CENTER_NAME":"EARTH","MEAN_ELEMENT_THEORY":"SGP4","TLE_LINE1":"1 45745U 20038R   22072.88811800  .00004088  00000-0  29326-3 0  9990","REV_AT_EPOCH":"9661","GP_ID":"198686844","SEMIMAJOR_AXIS":"6925.368"},{"ELEMENT_SET_NO":"999","FILE":"3358388","EPOCH":"2022-03-13T21:40:07.048704","MEAN_MOTION":"15.06394274","TIME_SYSTEM":"UTC","RA_OF_ASC_NODE":"296.3778","PERIAPSIS":"546.097","ARG_OF_PERICENTER":"67.0702","SITE":"AFETR","TLE_LINE2":"2 45746  53.0529 296.3778 0001637  67.0702 293.0460 15.06394274 96610","LAUNCH_DATE":"2020-06-13","EPHEMERIS_TYPE":"0","ECCENTRICITY":"0.00016370","OBJECT_NAME":"STARLINK-1504","MEAN_MOTION_DOT":"-0.00001975","CLASSIFICATION_TYPE":"U","MEAN_ELEMENT_THEORY":"SGP4","CENTER_NAME":"EARTH","APOAPSIS":"548.365","BSTAR":"-0.00011374000000","REF_FRAME":"TEME","PERIOD":"95.593","MEAN_ANOMALY":"293.0460","GP_ID":"198686102","SEMIMAJOR_AXIS":"6925.366","REV_AT_EPOCH":"9661","TLE_LINE1":"1 45746U 20038S   22072.90285936 -.00001975  00000-0 -11374-3 0  9997","OBJECT_ID":"2020-038S","OBJECT_TYPE":"PAYLOAD","RCS_SIZE":"LARGE","NORAD_CAT_ID":"45746","DECAY_DATE":null,"MEAN_MOTION_DDOT":"0.0000000000000","INCLINATION":"53.0529","COUNTRY_CODE":"US"},{"TLE_LINE1":"1 45747U 20038T   22072.90654514 -.00000526  00000-0 -16415-4 0  9993","REV_AT_EPOCH":"9662","GP_ID":"198685850","SEMIMAJOR_AXIS":"6925.337","PERIOD":"95.592","MEAN_ANOMALY":"301.6381","REF_FRAME":"TEME","BSTAR":"-0.00001641500000","APOAPSIS":"548.362","MEAN_ELEMENT_THEORY":"SGP4","CENTER_NAME":"EARTH","COUNTRY_CODE":"US","INCLINATION":"53.0551","MEAN_MOTION_DDOT":"0.0000000000000","DECAY_DATE":null,"NORAD_CAT_ID":"45747","OBJECT_TYPE":"PAYLOAD","RCS_SIZE":"LARGE","OBJECT_ID":"2020-038T","LAUNCH_DATE":"2020-06-13","TLE_LINE2":"2 45747  53.0551 296.3731 0001674  58.4772 301.6381 15.06403681 96629","SITE":"AFETR","ARG_OF_PERICENTER":"58.4772","RA_OF_ASC_NODE":"296.3731","PERIAPSIS":"546.043","TIME_SYSTEM":"UTC","MEAN_MOTION":"15.06403681","EPOCH":"2022-03-13T21:45:25.500096","FILE":"3358388","ELEMENT_SET_NO":"999","CLASSIFICATION_TYPE":"U","MEAN_MOTION_DOT":"-0.00000526","OBJECT_NAME":"STARLINK-1506","ECCENTRICITY":"0.00016740","EPHEMERIS_TYPE":"0"},{"LAUNCH_DATE":"2020-06-13","SITE":"AFETR","TLE_LINE2":"2 45748  53.0515 296.4311 0001570  61.6159 298.4988 15.06396831 96618","RA_OF_ASC_NODE":"296.4311","PERIAPSIS":"546.136","ARG_OF_PERICENTER":"61.6159","TIME_SYSTEM":"UTC","MEAN_MOTION":"15.06396831","ELEMENT_SET_NO":"999","EPOCH":"2022-03-13T21:28:09.423264","FILE":"3358388","CLASSIFICATION_TYPE":"U","MEAN_MOTION_DOT":"0.00001372","OBJECT_NAME":"STARLINK-1507","ECCENTRICITY":"0.00015700","EPHEMERIS_TYPE":"0","REV_AT_EPOCH":"9661","TLE_LINE1":"1 45748U 20038U   22072.89455351  .00001372  00000-0  11103-3 0  9996","SEMIMAJOR_AXIS":"6925.358","GP_ID":"198686597","REF_FRAME":"TEME","PERIOD":"95.592","MEAN_ANOMALY":"298.4988","BSTAR":"0.00011103000000","MEAN_ELEMENT_THEORY":"SGP4","CENTER_NAME":"EARTH","APOAPSIS":"548.311","INCLINATION":"53.0515","COUNTRY_CODE":"US","DECAY_DATE":null,"MEAN_MOTION_DDOT":"0.0000000000000","NORAD_CAT_ID":"45748","RCS_SIZE":"LARGE","OBJECT_TYPE":"PAYLOAD","OBJECT_ID":"2020-038U"},{"GP_ID":"198658045","SEMIMAJOR_AXIS":"6925.386","TLE_LINE1":"1 45750U 20038W   22072.85679409 -.00001872  00000-0 -10684-3 0  9997","REV_AT_EPOCH":"9801","MEAN_ELEMENT_THEORY":"SGP4","CENTER_NAME":"EARTH","APOAPSIS":"548.305","BSTAR":"-0.00010684000000","REF_FRAME":"TEME","MEAN_ANOMALY":"294.6285","PERIOD":"95.593","NORAD_CAT_ID":"45750","DECAY_DATE":null,"MEAN_MOTION_DDOT":"0.0000000000000","INCLINATION":"53.0539","COUNTRY_CODE":"US","OBJECT_ID":"2020-038W","RCS_SIZE":"LARGE","OBJECT_TYPE":"PAYLOAD","PERIAPSIS":"546.197","RA_OF_ASC_NODE":"276.6004","ARG_OF_PERICENTER":"65.4862","SITE":"AFETR","TLE_LINE2":"2 45750  53.0539 276.6004 0001522  65.4862 294.6285 15.06387643 98011","LAUNCH_DATE":"2020-06-13","ELEMENT_SET_NO":"999","FILE":"3358025","EPOCH":"2022-03-13T20:33:47.009376","MEAN_MOTION":"15.06387643","TIME_SYSTEM":"UTC","OBJECT_NAME":"STARLINK-1391","MEAN_MOTION_DOT":"-0.00001872","CLASSIFICATION_TYPE":"U","EPHEMERIS_TYPE":"0","ECCENTRICITY":"0.00015220"},{"OBJECT_NAME":"STARLINK-1464","MEAN_MOTION_DOT":"0.00000022","CLASSIFICATION_TYPE":"U","EPHEMERIS_TYPE":"0","ECCENTRICITY":"0.00016670","PERIAPSIS":"546.062","RA_OF_ASC_NODE":"276.6114","ARG_OF_PERICENTER":"60.8697","SITE":"AFETR","TLE_LINE2":"2 45751  53.0551 276.6114 0001667  60.8697 299.2459 15.06398918 96900","LAUNCH_DATE":"2020-06-13","ELEMENT_SET_NO":"999","FILE":"3358388","EPOCH":"2022-03-13T20:28:27.783840","MEAN_MOTION":"15.06398918","TIME_SYSTEM":"UTC","NORAD_CAT_ID":"45751","DECAY_DATE":null,"MEAN_MOTION_DDOT":"0.0000000000000","INCLINATION":"53.0551","COUNTRY_CODE":"US","OBJECT_ID":"2020-038X","RCS_SIZE":"LARGE","OBJECT_TYPE":"PAYLOAD","GP_ID":"198685602","SEMIMAJOR_AXIS":"6925.352","REV_AT_EPOCH":"9690","TLE_LINE1":"1 45751U 20038X   22072.85309935  .00000022  00000-0  20414-4 0  9999","MEAN_ELEMENT_THEORY":"SGP4","CENTER_NAME":"EARTH","APOAPSIS":"548.371","BSTAR":"0.00002041400000","REF_FRAME":"TEME","PERIOD":"95.592","MEAN_ANOMALY":"299.2459"},{"GP_ID":"198686351","SEMIMAJOR_AXIS":"6717.987","REV_AT_EPOCH":"10052","TLE_LINE1":"1 45752U 20038Y   22072.65139423  .00000367  00000-0  62631-5 0  9991","BSTAR":"0.00000626310000","PERIOD":"91.331","MEAN_ANOMALY":"332.2771","REF_FRAME":"TEME","APOAPSIS":"341.267","CENTER_NAME":"EARTH","MEAN_ELEMENT_THEORY":"SGP4","COUNTRY_CODE":"US","INCLINATION":"53.0024","NORAD_CAT_ID":"45752","DECAY_DATE":null,"MEAN_MOTION_DDOT":"0.0000000000000","OBJECT_TYPE":"PAYLOAD","RCS_SIZE":"LARGE","OBJECT_ID":"2020-038Y","TLE_LINE2":"2 45752  53.0024  13.7708 0002106  27.8360 332.2771 15.76681557100524","SITE":"AFETR","LAUNCH_DATE":"2020-06-13","ARG_OF_PERICENTER":"27.8360","PERIAPSIS":"338.438","RA_OF_ASC_NODE":"13.7708","MEAN_MOTION":"15.76681557","TIME_SYSTEM":"UTC","FILE":"3358388","EPOCH":"2022-03-13T15:38:00.461472","ELEMENT_SET_NO":"999","CLASSIFICATION_TYPE":"U","OBJECT_NAME":"STARLINK-1469","MEAN_MOTION_DOT":"0.00000367","ECCENTRICITY":"0.00021060","EPHEMERIS_TYPE":"0"},{"INCLINATION":"53.0551","COUNTRY_CODE":"US","NORAD_CAT_ID":"45753","MEAN_MOTION_DDOT":"0.0000000000000","DECAY_DATE":null,"OBJECT_TYPE":"PAYLOAD","RCS_SIZE":"LARGE","OBJECT_ID":"2020-038Z","GP_ID":"198687098","SEMIMAJOR_AXIS":"6925.332","TLE_LINE1":"1 45753U 20038Z   22072.93050854 -.00001043  00000-0 -51101-4 0  9996","REV_AT_EPOCH":"9691","BSTAR":"-0.00005110100000","REF_FRAME":"TEME","MEAN_ANOMALY":"295.3729","PERIOD":"95.592","MEAN_ELEMENT_THEORY":"SGP4","CENTER_NAME":"EARTH","APOAPSIS":"548.234","CLASSIFICATION_TYPE":"U","OBJECT_NAME":"STARLINK-1476","MEAN_MOTION_DOT":"-0.00001043","ECCENTRICITY":"0.00014970","EPHEMERIS_TYPE":"0","SITE":"AFETR","TLE_LINE2":"2 45753  53.0551 276.2743 0001497  64.7415 295.3729 15.06405324 96916","LAUNCH_DATE":"2020-06-13","RA_OF_ASC_NODE":"276.2743","PERIAPSIS":"546.161","ARG_OF_PERICENTER":"64.7415","MEAN_MOTION":"15.06405324","TIME_SYSTEM":"UTC","ELEMENT_SET_NO":"999","FILE":"3358388","EPOCH":"2022-03-13T22:19:55.937856"},{"PERIAPSIS":"546.096","RA_OF_ASC_NODE":"276.5475","ARG_OF_PERICENTER":"64.0499","SITE":"AFETR","TLE_LINE2":"2 45754  53.0532 276.5475 0001631  64.0499 296.0658 15.06396117 97869","LAUNCH_DATE":"2020-06-13","ELEMENT_SET_NO":"999","EPOCH":"2022-03-13T20:49:41.532384","FILE":"3358041","MEAN_MOTION":"15.06396117","TIME_SYSTEM":"UTC","OBJECT_NAME":"STARLINK-1477","MEAN_MOTION_DOT":"-0.00000221","CLASSIFICATION_TYPE":"U","EPHEMERIS_TYPE":"0","ECCENTRICITY":"0.00016310","GP_ID":"198658831","SEMIMAJOR_AXIS":"6925.360","REV_AT_EPOCH":"9786","TLE_LINE1":"1 45754U 20038AA  22072.86784181 -.00000221  00000-0  40342-5 0  9998","MEAN_ELEMENT_THEORY":"SGP4","CENTER_NAME":"EARTH","APOAPSIS":"548.355","BSTAR":"0.00000403420000","REF_FRAME":"TEME","MEAN_ANOMALY":"296.0658","PERIOD":"95.592","NORAD_CAT_ID":"45754","MEAN_MOTION_DDOT":"0.0000000000000","DECAY_DATE":null,"INCLINATION":"53.0532","COUNTRY_CODE":"US","OBJECT_ID":"2020-038AA","OBJECT_TYPE":"PAYLOAD","RCS_SIZE":"LARGE"},{"LAUNCH_DATE":"2020-06-13","TLE_LINE2":"2 45755  53.0542 276.7718 0001689  62.7819 297.3342 15.06392437 98009","SITE":"AFETR","ARG_OF_PERICENTER":"62.7819","RA_OF_ASC_NODE":"276.7718","PERIAPSIS":"546.067","TIME_SYSTEM":"UTC","MEAN_MOTION":"15.06392437","FILE":"3358042","EPOCH":"2022-03-13T19:40:42.383136","ELEMENT_SET_NO":"999","CLASSIFICATION_TYPE":"U","MEAN_MOTION_DOT":"-0.00002302","OBJECT_NAME":"STARLINK-1478","ECCENTRICITY":"0.00016890","EPHEMERIS_TYPE":"0","REV_AT_EPOCH":"9800","TLE_LINE1":"1 45755U 20038AB  22072.81993499 -.00002302  00000-0 -13570-3 0  9992","GP_ID":"198658351","SEMIMAJOR_AXIS":"6925.372","PERIOD":"95.593","MEAN_ANOMALY":"297.3342","REF_FRAME":"TEME","BSTAR":"-0.00013570000000","APOAPSIS":"548.406","MEAN_ELEMENT_THEORY":"SGP4","CENTER_NAME":"EARTH","COUNTRY_CODE":"US","INCLINATION":"53.0542","DECAY_DATE":null,"MEAN_MOTION_DDOT":"0.0000000000000","NORAD_CAT_ID":"45755","OBJECT_TYPE":"PAYLOAD","RCS_SIZE":"LARGE","OBJECT_ID":"2020-038AB"}];
